[Satellite]
VERSION=1.1
NAME=MOLNIYA 2-17
NICKNAME=MOLNIYA 2-17
TLE1=1 09829U 77010A   18017.60235486  .00001753  00000-0  28945-2 0  9990
TLE2=2 09829  61.2695 194.8834 7356829 261.9794  16.8926  2.00590859297103
